{
  "norad_id": 59500,
  "name": "STARLINK-31512",
  "history": [
    {
      "epoch": "2026-03-28T16:01:18.448032Z",
      "apogee_km": 483.5112882957428,
      "perigee_km": 482.4174915121639,
      "latitude_deg": 4.7975348862344104e-05,
      "longitude_deg": 126.00595694425981,
      "height_km": 482.7305992424816,
      "semi_major_axis_km": 6861.101389903953,
      "eccentricity": 7.971e-05,
      "inclination_deg": 43.0014,
      "raan_deg": 192.4175,
      "arg_perigee_deg": 271.06,
      "mean_anomaly_deg": 89.0161,
      "mean_motion_rev_day": 15.27608289
    },
    {
      "epoch": "2026-03-28T23:52:05.915424Z",
      "apogee_km": 483.6575865714485,
      "perigee_km": 482.455505462186,
      "latitude_deg": 4.139560498615055e-05,
      "longitude_deg": 6.142323925039394,
      "height_km": 482.4484955993466,
      "semi_major_axis_km": 6861.193546016817,
      "eccentricity": 8.76e-05,
      "inclination_deg": 43.0026,
      "raan_deg": 190.5739,
      "arg_perigee_deg": 309.7655,
      "mean_anomaly_deg": 50.312,
      "mean_motion_rev_day": 15.27577512
    },
    {
      "epoch": "2026-03-29T23:24:27.052704Z",
      "apogee_km": 483.5651542625719,
      "perigee_km": 482.54009253283584,
      "latitude_deg": 3.7230622232547742e-06,
      "longitude_deg": 6.546791456361464,
      "height_km": 482.69571114329227,
      "semi_major_axis_km": 6861.189623397703,
      "eccentricity": 7.47e-05,
      "inclination_deg": 43.0021,
      "raan_deg": 185.0332,
      "arg_perigee_deg": 285.0718,
      "mean_anomaly_deg": 75.0051,
      "mean_motion_rev_day": 15.27578822
    },
    {
      "epoch": "2026-03-29T23:24:27.053568Z",
      "apogee_km": 483.5652914863631,
      "perigee_km": 482.53995530904376,
      "latitude_deg": 5.230372993704779e-06,
      "longitude_deg": 6.546789453865865,
      "height_km": 482.69567546754405,
      "semi_major_axis_km": 6861.189623397703,
      "eccentricity": 7.472e-05,
      "inclination_deg": 43.0021,
      "raan_deg": 185.0332,
      "arg_perigee_deg": 285.0718,
      "mean_anomaly_deg": 75.0051,
      "mean_motion_rev_day": 15.27578822
    },
    {
      "epoch": "2026-03-30T13:31:52.065120Z",
      "apogee_km": 483.3509074580297,
      "perigee_km": 482.77388058899214,
      "latitude_deg": 3.171870410995864e-05,
      "longitude_deg": 150.79066733468701,
      "height_km": 482.82003244618863,
      "semi_major_axis_km": 6861.199394023511,
      "eccentricity": 4.205e-05,
      "inclination_deg": 43.0022,
      "raan_deg": 181.7113,
      "arg_perigee_deg": 273.6625,
      "mean_anomaly_deg": 86.4179,
      "mean_motion_rev_day": 15.27575559
    }
  ]
}